ELFIN-A                 
1 43617U 18070E   21120.41708361  .00008550  00000-0  18399-3 0  9994
2 43617  93.0273 286.9043 0013822 174.8223 185.3179 15.44533017147371
CUBEBEL-1 (BSUSAT-1)    
1 43666U 18083E   21120.37082088  .00002258  00000-0  11030-3 0  9992
2 43666  97.4597 149.3388 0014162 343.7917 141.8652 15.19205325138712
CICERO 10               
1 43690U 18088A   21120.42391330  .00001826  00000-0  80206-4 0  9995
2 43690  85.0404 229.3357 0013049 219.6223 140.4066 15.21104327136904
IRVINE01                
1 43693U 18088D   21120.60075897  .00004314  00000-0  16962-3 0  9997
2 43693  85.0369 226.7411 0016416 194.0191 166.0599 15.25226233137147
PROXIMA I               
1 43694U 18088E   21120.31697058  .00001842  00000-0  76716-4 0  9992
2 43694  85.0348 227.1397 0018319 190.5265 169.5597 15.22835046137040
PROXIMA II              
1 43696U 18088G   21120.31515715  .00001858  00000-0  77396-4 0  9995
2 43696  85.0349 227.1489 0018374 190.4779 169.6083 15.22833304137041
FACSAT-1                
1 43721U 18096C   21120.41311434  .00003516  00000-0  12833-3 0  9993
2 43721  97.3873 197.9224 0018607  82.4633 339.8503 15.28647499134787
CENTAURI-2              
1 43722U 18096D   21120.47195137  .00003676  00000-0  12981-3 0  9991
2 43722  97.3883 198.6819 0018227  82.1399 278.1910 15.29705437134821
INNOSAT-2               
1 43738U 18096V   21120.57374138  .00007347  00000-0  23042-3 0  9998
2 43738  97.3935 202.2765 0023291  82.7225  32.6694 15.33086944135068
SIRION PATHFINDER-2     
1 43759U 18099B   21120.41940129  .00000665  00000-0  65095-4 0  9997
2 43759  97.6669 192.0386 0013720 197.7147 162.3597 14.95489117131301
CORVUS BC4              
1 43767U 18099K   21120.41252118  .00000734  00000-0  72423-4 0  9990
2 43767  97.6643 191.0827 0011139 201.5032 158.5722 14.94916869131259
MOVE-II                 
1 43780U 18099Y   21120.45052328  .00000551  00000-0  54357-4 0  9993
2 43780  97.6689 192.1724 0012786 209.5056 150.5445 14.95857000131295
SPACEBEE-7              
1 43816U 18099BL  21120.46877436  .00000963  00000-0  90675-4 0  9999
2 43816  97.6703 192.7618 0013196 192.2459 167.8443 14.96071007130880
SPACEBEE-5              
1 43817U 18099BM  21120.44557361  .00000986  00000-0  90114-4 0  9993
2 43817  97.6786 193.8611 0012819 191.6988 168.3938 14.97211492130923
SPACEBEE-6              
1 43818U 18099BN  21120.24400965  .00000531  00000-0  51894-4 0  9997
2 43818  97.6731 192.8854 0012919 192.9332 167.1560 14.96419298131012
SHIELDS 1               
1 43850U 18104B   21120.52158986  .00000813  00000-0  33948-4 0  9997
2 43850  85.0270 325.6616 0014382 354.0846   6.0224 15.21823255131688
STF-1                   
1 43852U 18104D   21120.37459188  .00001993  00000-0  84621-4 0  9994
2 43852  85.0308 326.4267 0014500   9.3342 350.8166 15.22292885131647
ZACUBE-2                
1 43907U 18111AH  21120.62926966  .00001294  00000-0  54081-4 0  9995
2 43907  97.2385  16.3711 0023033 101.3189 346.3070 15.25122784130343
LUME 1                  
1 43908U 18111AJ  21120.40027905  .00001838  00000-0  73572-4 0  9997
2 43908  97.2377  16.6403 0022391 100.7884 259.5877 15.26075507130348
AOBA VELOX-IV           
1 43940U 19003J   21120.60304254  .00003805  00000-0  14560-3 0  9998
2 43940  97.1823 166.4907 0022973 174.7739 185.3745 15.26909265127004
CATSAT-2                
1 44029U 98067PV  21103.18846432  .08994300  12447-4  71822-3 0  9990
2 44029  51.6303 210.8330 0006076 315.2983  44.7553 16.39157428125817
UNITE                   
1 44031U 98067PX  21120.41191072  .00035482  00000-0  23695-3 0  9993
2 44031  51.6353 152.8821 0001408  53.3225 306.7904 15.74977135128095
CATSAT-1                
1 44033U 98067PZ  21102.52173143  .03148828  12044-4  93890-3 0  9997
2 44033  51.6349 214.6392 0009094 323.2962  36.7435 16.26195910125613
RAAVANA-1               
1 44329U 98067QE  21120.39149337  .00039391  00000-0  28485-3 0  9992
2 44329  51.6323 172.3500 0004477  66.2532 293.8936 15.73061562106584
UGUISU                  
1 44330U 98067QF  21120.43849715  .00039417  00000-0  28971-3 0  9995
2 44330  51.6310 172.5831 0004537  67.7177 292.4302 15.72678325106569
NEPALISAT-1             
1 44331U 98067QG  21120.38500964  .00039526  00000-0  28649-3 0  9993
2 44331  51.6301 172.2241 0004380  68.2449 291.9016 15.73006324106578
SPOOQY-1                
1 44332U 98067QH  21120.37868864  .00038430  00000-0  28693-3 0  9991
2 44332  51.6318 172.9678 0003897  64.6458 295.4943 15.72322227106525
SPACEBEE-9              
1 44370U 19037F   21120.34652848  .00026141  00000-0  39002-3 0  9995
2 44370  44.9997 132.7522 0007932 303.0397  56.9734 15.54615691103696
SPACEBEE-8              
1 44371U 19037G   21115.38628577  .04142189  47795-1  31371-2 0  9994
2 44371  44.9858 123.2481 0004816 133.1113 227.0208 16.18815125103364
MOVE-IIB                
1 44398U 19038N   21120.44628860  .00002163  00000-0  12369-3 0  9999
2 44398  97.5781  84.6824 0025888 112.4042 247.9931 15.13484588100502
SONATE                  
1 44400U 19038Q   21120.68184698  .00001270  00000-0  76263-4 0  9997
2 44400  97.5844  84.8289 0026410 112.4669 247.9364 15.12472141100512
LUCKY-7                 
1 44406U 19038W   21120.43349954  .00001240  00000-0  73788-4 0  9990
2 44406  97.5857  84.8081 0025808 112.6075 247.7889 15.12854827100486
BEESAT 9                
1 44412U 19038AC  21120.39658655  .00001590  00000-0  92889-4 0  9994
2 44412  97.5842  84.7841 0023723 117.5524 242.8121 15.13150488100182
JAISAT-1                
1 44419U 19038F   21120.44782253  .00001656  00000-0  95342-4 0  9999
2 44419  97.5846  85.3444 0022628 115.6666 244.6905 15.13635293100539
KRAKSAT                 
1 44427U 98067QM  21120.66193376  .00022572  00000-0  22665-3 0  9990
2 44427  51.6407 183.1126 0005117  40.7329  44.0146 15.65380593103982
VCC A                   
1 44428U 98067QN  21120.38994948  .00034620  00000-0  27124-3 0  9996
2 44428  51.6346 176.1722 0004046  37.0956 323.0321 15.71227493104054
ENTRYSAT                
1 44429U 98067QP  21120.53562095  .00062132  00000-0  35583-3 0  9995
2 44429  51.6291 167.9801 0005103  31.9650 328.1660 15.78205177104176
VCC C                   
1 44430U 98067QQ  21120.35161639  .00398027  79423-4  72368-3 0  9992
2 44430  51.6196 156.8362 0008545  23.4063 336.7334 16.00821361103120
VCC B                   
1 44431U 98067QR  21120.54996092  .00035581  00000-0  27331-3 0  9997
2 44431  51.6315 174.9074 0004183  38.4461 321.6834 15.71685238104023
DUCHIFAT-3              
1 44854U 19089C   21120.44904125  .00000920  00000-0  79980-4 0  9995
2 44854  36.9663  24.5097 0006755 107.9478 252.2020 14.99450194 75894
EYESAT-NANO             
1 44877U 19092E   21120.42952734  .00001607  00000-0  82546-4 0  9996
2 44877  97.4604 304.7556 0013195   4.1150 356.0190 15.17863486 75658
ORBITAL FACTORY 2 (OF-2)
1 45113U 19071C   21120.44309687  .00003612  00000-0  11408-3 0  9998
2 45113  51.6418 270.2404 0012496 119.3699 240.8533 15.35456272 69796
M2 PATHFINDER           
1 45727U 20037E   21120.37884257  .00000306  00000-0  36219-4 0  9991
2 45727  97.7157 299.2473 0012106 332.5219  27.5362 14.91361196 45256
NETSAT-4                
1 46504U 20068U   21119.73764483  .00000343  00000-0  30732-4 0  9990
2 46504  97.6903  57.0166 0008403 297.5916  62.4463 15.02074333 31922
NETSAT-3                
1 46505U 20068V   21119.74314433  .00000506  00000-0  43218-4 0  9992
2 46505  97.6895  56.9958 0006803 303.5374  56.5203 15.02039328 31930
NETSAT-1                
1 46506U 20068W   21119.88185134  .00000648  00000-0  54017-4 0  9998
2 46506  97.6900  57.1096 0005015 302.1205  57.9520 15.02008198 31956
NETSAT-2                
1 46507U 20068X   21119.88468473  .00000644  00000-0  53791-4 0  9993
2 46507  97.6882  57.1100 0004490 298.3327  61.7434 15.01985494 31903
SPOC                    
1 46921U 98067RR  21120.54857791  .00008507  00000-0  13841-3 0  9994
2 46921  51.6417 214.7693 0001805 277.9560  82.1225 15.53555040 27406
BOBCAT-1                
1 46922U 98067RS  21120.41662909  .00012314  00000-0  18775-3 0  9998
2 46922  51.6428 214.6513 0001865 294.4137  65.6659 15.54885731 27354
NEUTRON-1               
1 46923U 98067RT  21120.62463075  .00008100  00000-0  13271-3 0  9999
2 46923  51.6417 214.5254 0001902 294.4382  65.6410 15.53434854 27448
1998-067RU              
1 46924U 98067RU  21120.61425471  .00022834  00000-0  30942-3 0  9991
2 46924  51.6396 212.2025 0003183 331.9038  28.1782 15.57572826 27435
DESCENT                 
1 46927U 98067RX  21120.50017009  .00007705  00000-0  12672-3 0  9996
2 46927  51.6417 215.1914 0002271 312.8820  47.1980 15.53408263 27334
SAI-1 NANOCONNECT-2     
1 47701U 21015C   21120.44096908 -.00000071  00000-0  00000+0 0  9992
2 47701  97.4589 195.3375 0014128 101.5220 258.7795 15.22490840  9314
WARP-01                 
1 47924U 98067SA  21120.43813821  .00010665  00000-0  18981-3 0  9990
2 47924  51.6421 218.5132 0005173 296.5473  63.4985 15.50706028  7344
RSP-01                  
1 47925U 98067SB  21119.53288153  .00008726  00000-0  15687-3 0  9999
2 47925  51.6428 222.9696 0001658 223.5199 136.5659 15.50690821  7180
TAUSAT-1                
1 47926U 98067SC  21120.42523481  .00011850  00000-0  20664-3 0  9999
2 47926  51.6426 218.4306 0002765 228.2388 131.8365 15.51169102  7310
TSURU                   
1 47927U 98067SD  21119.53363568  .00007813  00000-0  14166-3 0  9992
2 47927  51.6429 222.9747 0001698 218.1260 141.9609 15.50617333  7185
STARS-EC                
1 47928U 98067SE  21120.43756958  .00008628  00000-0  15582-3 0  9991
2 47928  51.6422 218.5098 0005975 299.7640  60.2754 15.50569321  7309
MAYA-2                  
1 47929U 98067SF  21119.53266879  .00007741  00000-0  14027-3 0  9997
2 47929  51.6429 222.9684 0001787 213.9729 146.1146 15.50649170  7142
